{"type": "FeatureCollection", "features": [{"type": "Feature", "properties": {"height": -1.0, "confidence": -1.0, "distance_m_approx": 0.0, "contains_target": true, "candidate_rank": 1}, "geometry": {"type": "Polygon", "coordinates": [[[77.59559158034325, 12.972059470403266], [77.59572391479063, 12.972421249217192], [77.59561444257528, 12.972459275007552], [77.5955606778959, 12.972312292034061], [77.5955416388283, 12.9723189040662], [77.59546306948175, 12.972104109438888], [77.59559158034325, 12.972059470403266]]]}}]}