{"type": "FeatureCollection", "features": [{"type": "Feature", "properties": {"height": -1.0, "confidence": -1.0, "distance_m_approx": 0.0, "contains_target": true, "candidate_rank": 1}, "geometry": {"type": "Polygon", "coordinates": [[[77.59559158034325, 12.972059470403266], [77.59572391479063, 12.972421249217192], [77.59561444257528, 12.972459275007552], [77.5955606778959, 12.972312292034061], [77.5955416388283, 12.9723189040662], [77.59546306948175, 12.972104109438888], [77.59559158034325, 12.972059470403266]]]}}, {"type": "Feature", "properties": {"height": -1.0, "confidence": -1.0, "distance_m_approx": 24.05, "contains_target": false, "candidate_rank": 2}, "geometry": {"type": "Polygon", "coordinates": [[[77.59570620254095, 12.972039335267468], [77.59588956668718, 12.971979619472904], [77.59591940645427, 12.972066610686355], [77.59573604230805, 12.972126326460028], [77.59570620254095, 12.972039335267468]]]}}, {"type": "Feature", "properties": {"height": -1.0, "confidence": -1.0, "distance_m_approx": 30.36, "contains_target": false, "candidate_rank": 3}, "geometry": {"type": "Polygon", "coordinates": [[[77.59500664316992, 12.972022770265312], [77.59520365112975, 12.971982810201936], [77.59526475051702, 12.972268858909175], [77.59530179165846, 12.97214325320158], [77.59538454002781, 12.97212646896439], [77.59548032459425, 12.972574902702647], [77.59540834141639, 12.972589503359643], [77.59540069305292, 12.97255369611726], [77.59538358222629, 12.972611718471484], [77.59537118875376, 12.97255369611726], [77.59536185557562, 12.972585344675778], [77.59536303201624, 12.972590852401936], [77.5952781946995, 12.97260806031791], [77.59529264265086, 12.972675701081926], [77.59531894765207, 12.972670365527534], [77.59532667003077, 12.972644185532332], [77.59543976724589, 12.972675864928632], [77.59541199985175, 12.972770023364575], [77.59536492633818, 12.972756837718308], [77.59534898855505, 12.972810882269883], [77.5952003325925, 12.972769252756535], [77.59520479026486, 12.97275413691996], [77.5951961261326, 12.972713574192781], [77.59515242206037, 12.972722438872538], [77.5951390443276, 12.972659808547903], [77.59516989426096, 12.972653551125347], [77.59516293783993, 12.972620983349458], [77.59520234293855, 12.97261299064526], [77.59511669488595, 12.97258900580536], [77.5951229907106, 12.972567656832368], [77.59500664316992, 12.972022770265312]]]}}, {"type": "Feature", "properties": {"height": -1.0, "confidence": -1.0, "distance_m_approx": 50.24, "contains_target": false, "candidate_rank": 4}, "geometry": {"type": "Polygon", "coordinates": [[[77.59578709289245, 12.971700294791702], [77.59588385524862, 12.971664076953203], [77.59591022109684, 12.971730968692953], [77.59602008297544, 12.971762873384861], [77.59601156245063, 12.971790734942687], [77.59607283953639, 12.97194619848105], [77.59594416486244, 12.971994360941608], [77.59593409159278, 12.971991435593424], [77.59592398637233, 12.972024478971619], [77.59589052126252, 12.971939576076181], [77.59579080833733, 12.971910618735194], [77.59577507946295, 12.971916505996774], [77.59572538532751, 12.971902074466314], [77.59578709289245, 12.971700294791702]]]}}, {"type": "Feature", "properties": {"height": -1.0, "confidence": -1.0, "distance_m_approx": 51.46, "contains_target": false, "candidate_rank": 5}, "geometry": {"type": "Polygon", "coordinates": [[[77.59591557172234, 12.972370658957487], [77.59594357859704, 12.972424878842645], [77.59589649867405, 12.972447972147876], [77.59586849179935, 12.972393752267763], [77.59591557172234, 12.972370658957487]]]}}, {"type": "Feature", "properties": {"height": -1.0, "confidence": -1.0, "distance_m_approx": 69.48, "contains_target": false, "candidate_rank": 6}, "geometry": {"type": "Polygon", "coordinates": [[[77.5962177034025, 12.972090859887743], [77.59613558916972, 12.972122384585902], [77.59611637990282, 12.972074870356636], [77.59604293031119, 12.972103068590897], [77.5960136635488, 12.972030664218394], [77.59608099842308, 12.97200481349465], [77.5960706030651, 12.97197909593875], [77.59617887508537, 12.971937536292984], [77.5961578358623, 12.971885495617727], [77.59630643696411, 12.971828455842754], [77.59634975846386, 12.971935611908137], [77.5961811199495, 12.972000354414376], [77.5962177034025, 12.972090859887743]]]}}, {"type": "Feature", "properties": {"height": -1.0, "confidence": -1.0, "distance_m_approx": 80.02, "contains_target": false, "candidate_rank": 7}, "geometry": {"type": "Polygon", "coordinates": [[[77.59560807965374, 12.97162075475029], [77.59562383235212, 12.971672036241117], [77.59557706223003, 12.971685682426909], [77.5955613086324, 12.971634398011346], [77.59560807965374, 12.97162075475029]]]}}, {"type": "Feature", "properties": {"height": -1.0, "confidence": -1.0, "distance_m_approx": 83.49, "contains_target": false, "candidate_rank": 8}, "geometry": {"type": "Polygon", "coordinates": [[[77.59568107118092, 12.971572834406842], [77.59594811952424, 12.971477232022153], [77.595974165332, 12.971546320627908], [77.59593635317718, 12.971559857247229], [77.595953717049, 12.971605916304583], [77.59586065623375, 12.971639231742017], [77.5958563145371, 12.971627717240878], [77.5957201398925, 12.971676467268495], [77.59568107118092, 12.971572834406842]]]}}, {"type": "Feature", "properties": {"height": -1.0, "confidence": -1.0, "distance_m_approx": 87.99, "contains_target": false, "candidate_rank": 9}, "geometry": {"type": "Polygon", "coordinates": [[[77.5961596783575, 12.972114844510443], [77.59622323062949, 12.972097121012368], [77.59623290678553, 12.97213006907424], [77.59616935114985, 12.972147789173349], [77.5961596783575, 12.972114844510443]]]}}, {"type": "Feature", "properties": {"height": -1.0, "confidence": -1.0, "distance_m_approx": 96.5, "contains_target": false, "candidate_rank": 10}, "geometry": {"type": "Polygon", "coordinates": [[[77.59631466278778, 12.971955821541542], [77.59634464802859, 12.972023246537589], [77.5963116053582, 12.972037198565118], [77.59633250530597, 12.97208420189314], [77.59624135378192, 12.972122696167446], [77.59619046659505, 12.972008270962391], [77.59631466278778, 12.971955821541542]]]}}, {"type": "Feature", "properties": {"height": -1.0, "confidence": -1.0, "distance_m_approx": 97.28, "contains_target": false, "candidate_rank": 11}, "geometry": {"type": "Polygon", "coordinates": [[[77.59647776063885, 12.971485164035357], [77.59647203233085, 12.971469829001506], [77.59651703168278, 12.971453866700799], [77.5965937604247, 12.97165927420994], [77.59630570509316, 12.971761453930952], [77.59632553050267, 12.971814537915193], [77.59613842372488, 12.971880908871398], [77.5961194602897, 12.97183013290028], [77.59624261918142, 12.971786445681659], [77.59624003325843, 12.971779521683573], [77.59629687582384, 12.971759358348763], [77.59624312165329, 12.971615427566604], [77.5961924872519, 12.971633385283226], [77.59617696873026, 12.971591841266289], [77.59647776063885, 12.971485164035357]]]}}, {"type": "Feature", "properties": {"height": -1.0, "confidence": -1.0, "distance_m_approx": 98.66, "contains_target": false, "candidate_rank": 12}, "geometry": {"type": "Polygon", "coordinates": [[[77.59477669882948, 12.971958559436686], [77.59497696664783, 12.971915083459592], [77.59499688531471, 12.972002240903265], [77.59479662346018, 12.972045715570403], [77.59477669882948, 12.971958559436686]]]}}, {"type": "Feature", "properties": {"height": -1.0, "confidence": -1.0, "distance_m_approx": 105.48, "contains_target": false, "candidate_rank": 13}, "geometry": {"type": "Polygon", "coordinates": [[[77.59627535453257, 12.972133857763936], [77.5965796893043, 12.97201726883766], [77.5965973715931, 12.97206109952748], [77.59657413937751, 12.972069998073465], [77.59660975891032, 12.972158291407041], [77.59647817840299, 12.9722086901577], [77.59646963326851, 12.97218750480124], [77.59642464869128, 12.972204738129491], [77.59644141396382, 12.97224629569692], [77.59649104358144, 12.972227286268875], [77.59651295991378, 12.972281621892037], [77.59635878870601, 12.972340673437174], [77.59627535453257, 12.972133857763936]]]}}, {"type": "Feature", "properties": {"height": -1.0, "confidence": -1.0, "distance_m_approx": 107.65, "contains_target": false, "candidate_rank": 14}, "geometry": {"type": "Polygon", "coordinates": [[[77.59620695388122, 12.9729352172224], [77.5960534046702, 12.972990281243796], [77.59599689838859, 12.972840651177734], [77.59595288353094, 12.972856435278217], [77.59593407661053, 12.972806643529168], [77.5959978556967, 12.97278376745426], [77.59600307241648, 12.972797578840627], [77.59604472775665, 12.97278263803858], [77.59603049959588, 12.972744961485276], [77.59612262912253, 12.972711923041317], [77.59620695388122, 12.9729352172224]]]}}, {"type": "Feature", "properties": {"height": -1.0, "confidence": -1.0, "distance_m_approx": 114.76, "contains_target": false, "candidate_rank": 15}, "geometry": {"type": "Polygon", "coordinates": [[[77.59641102529156, 12.971914576931326], [77.59644628205842, 12.971972670785703], [77.59636679508642, 12.972018480133144], [77.59638912437212, 12.972055272893783], [77.59634540653748, 12.972080468027556], [77.59632072680071, 12.972039802348533], [77.59635450876378, 12.972020333378552], [77.59632160244807, 12.971966112458631], [77.59641102529156, 12.971914576931326]]]}}, {"type": "Feature", "properties": {"height": -1.0, "confidence": -1.0, "distance_m_approx": 122.88, "contains_target": false, "candidate_rank": 16}, "geometry": {"type": "Polygon", "coordinates": [[[77.59543747633134, 12.971241556000933], [77.59550070381516, 12.97138375305974], [77.59500163544581, 12.971594481511659], [77.59496836672895, 12.971519661057684], [77.59501578951516, 12.971499637088797], [77.59498584227956, 12.971432286532675], [77.59543747633134, 12.971241556000933]]]}}, {"type": "Feature", "properties": {"height": -1.0, "confidence": -1.0, "distance_m_approx": 132.04, "contains_target": false, "candidate_rank": 17}, "geometry": {"type": "Polygon", "coordinates": [[[77.59614207314752, 12.971491692651085], [77.5964830468948, 12.971357044018774], [77.59649985190786, 12.971397455586256], [77.5964238239777, 12.97142747859354], [77.59644249621446, 12.971472380322083], [77.59617755039734, 12.971577005906369], [77.59614207314752, 12.971491692651085]]]}}, {"type": "Feature", "properties": {"height": -1.0, "confidence": -1.0, "distance_m_approx": 145.91, "contains_target": false, "candidate_rank": 18}, "geometry": {"type": "Polygon", "coordinates": [[[77.59485789883558, 12.97155051918493], [77.59486343258376, 12.971618046392308], [77.59482878482143, 12.971620742659582], [77.5948232510733, 12.971553215452886], [77.59485789883558, 12.97155051918493]]]}}, {"type": "Feature", "properties": {"height": -1.0, "confidence": -1.0, "distance_m_approx": 152.88, "contains_target": false, "candidate_rank": 19}, "geometry": {"type": "Polygon", "coordinates": [[[77.5953964461927, 12.973245511731776], [77.59537369438087, 12.973255993645793], [77.59539402255916, 12.973297899962759], [77.59530277919262, 12.97333993016592], [77.59523684841216, 12.973204034701894], [77.59535084358289, 12.973151516338305], [77.5953964461927, 12.973245511731776]]]}}, {"type": "Feature", "properties": {"height": -1.0, "confidence": -1.0, "distance_m_approx": 157.34, "contains_target": false, "candidate_rank": 20}, "geometry": {"type": "Polygon", "coordinates": [[[77.59669901134976, 12.971617390485875], [77.5968230392268, 12.97195283868551], [77.59669246817559, 12.971998683151313], [77.59671299692765, 12.972054205558067], [77.5966346542969, 12.97208171222735], [77.59656280366471, 12.971887383770962], [77.59662927619986, 12.971864044760807], [77.596556570203, 12.971667402697392], [77.59669901134976, 12.971617390485875]]]}}, {"type": "Feature", "properties": {"height": -1.0, "confidence": -1.0, "distance_m_approx": 159.03, "contains_target": false, "candidate_rank": 21}, "geometry": {"type": "Polygon", "coordinates": [[[77.59575689600717, 12.973371316312651], [77.59571848285351, 12.97341514467442], [77.59566730280001, 12.973372548916686], [77.59562888964635, 12.973416377278227], [77.59553428409288, 12.973337639660102], [77.59556474969747, 12.973302879225045], [77.59553218057252, 12.973275772822362], [77.59557854127519, 12.973222876493054], [77.59575689600717, 12.973371316312651]]]}}, {"type": "Feature", "properties": {"height": -1.0, "confidence": -1.0, "distance_m_approx": 160.42, "contains_target": false, "candidate_rank": 22}, "geometry": {"type": "Polygon", "coordinates": [[[77.59590383814563, 12.971141093608622], [77.59573958587397, 12.971177412058054], [77.59566974819977, 12.970877572564703], [77.59569117154935, 12.970872834099211], [77.59553894858468, 12.970219080605915], [77.59549197258858, 12.970229470891425], [77.59541243252428, 12.969887974045662], [77.5956022816346, 12.969845995563063], [77.59590383814563, 12.971141093608622]]]}}, {"type": "Feature", "properties": {"height": -1.0, "confidence": -1.0, "distance_m_approx": 163.28, "contains_target": false, "candidate_rank": 23}, "geometry": {"type": "Polygon", "coordinates": [[[77.5949339939383, 12.971264244079663], [77.5949507154314, 12.971374220531175], [77.59479586615036, 12.971396589072157], [77.59477914465725, 12.971286612630536], [77.5949339939383, 12.971264244079663]]]}}, {"type": "Feature", "properties": {"height": -1.0, "confidence": -1.0, "distance_m_approx": 166.09, "contains_target": false, "candidate_rank": 24}, "geometry": {"type": "Polygon", "coordinates": [[[77.59448397196421, 12.97219160270214], [77.5945304929476, 12.972190098769659], [77.59453520378031, 12.972328475545453], [77.59448869272447, 12.972329979156115], [77.59448397196421, 12.97219160270214]]]}}, {"type": "Feature", "properties": {"height": -1.0, "confidence": -1.0, "distance_m_approx": 170.91, "contains_target": false, "candidate_rank": 25}, "geometry": {"type": "Polygon", "coordinates": [[[77.5944012840252, 12.97155805907137], [77.59448902449356, 12.971572301337588], [77.59449267936132, 12.971550919757362], [77.59459707001093, 12.971567871845423], [77.5945768968749, 12.971685887992095], [77.5946013684172, 12.971689860275958], [77.59458745161226, 12.9717712416343], [77.59437084101435, 12.971736080852466], [77.5944012840252, 12.97155805907137]]]}}, {"type": "Feature", "properties": {"height": -1.0, "confidence": -1.0, "distance_m_approx": 171.64, "contains_target": false, "candidate_rank": 26}, "geometry": {"type": "Polygon", "coordinates": [[[77.5950732105247, 12.973260497852266], [77.59513882387903, 12.97320335677658], [77.59522759593753, 12.973300153696044], [77.59516290317038, 12.97335648862071], [77.5951135945416, 12.973302718371684], [77.59511266952553, 12.973303523882379], [77.5950732105247, 12.973260497852266]]]}}, {"type": "Feature", "properties": {"height": -1.0, "confidence": -1.0, "distance_m_approx": 174.37, "contains_target": false, "candidate_rank": 27}, "geometry": {"type": "Polygon", "coordinates": [[[77.59657126819083, 12.97163857467035], [77.596550059473, 12.971442102721113], [77.59655700077961, 12.971441391175716], [77.59654824374472, 12.971360322214679], [77.596780063332, 12.97133654283408], [77.59677336589095, 12.97127449945387], [77.59683335154025, 12.971268346298118], [77.59690623414028, 12.971943062327469], [77.59685848347127, 12.971947960440772], [77.59681883086898, 12.97158087379313], [77.59669414856663, 12.971593663329628], [77.59669760099608, 12.97162562444879], [77.59657126819083, 12.97163857467035]]]}}, {"type": "Feature", "properties": {"height": -1.0, "confidence": -1.0, "distance_m_approx": 178.65, "contains_target": false, "candidate_rank": 28}, "geometry": {"type": "Polygon", "coordinates": [[[77.59612205880194, 12.970930004793658], [77.59616844295694, 12.971092558594592], [77.59602404012297, 12.971131687461067], [77.59597765596797, 12.970969133685713], [77.59612205880194, 12.970930004793658]]]}}, {"type": "Feature", "properties": {"height": -1.0, "confidence": -1.0, "distance_m_approx": 182.56, "contains_target": false, "candidate_rank": 29}, "geometry": {"type": "Polygon", "coordinates": [[[77.59623326146962, 12.973211262136374], [77.5962625346261, 12.973327084491075], [77.59620087923032, 12.973341877823955], [77.59617161391695, 12.973226053594317], [77.59623326146962, 12.973211262136374]]]}}, {"type": "Feature", "properties": {"height": -1.0, "confidence": -1.0, "distance_m_approx": 183.01, "contains_target": false, "candidate_rank": 30}, "geometry": {"type": "Polygon", "coordinates": [[[77.59581193169507, 12.973429033786658], [77.59584123974233, 12.97335245948355], [77.59593306936596, 12.973385841230282], [77.59590376342305, 12.97346241002495], [77.59581193169507, 12.973429033786658]]]}}, {"type": "Feature", "properties": {"height": -1.0, "confidence": -1.0, "distance_m_approx": 188.0, "contains_target": false, "candidate_rank": 31}, "geometry": {"type": "Polygon", "coordinates": [[[77.59643809424739, 12.97123417332314], [77.59666855354484, 12.971227383151401], [77.59666766229229, 12.971198657974071], [77.59673034187696, 12.971196811204578], [77.59673422198452, 12.971322157674535], [77.59644109209677, 12.971330794347182], [77.59643809424739, 12.97123417332314]]]}}, {"type": "Feature", "properties": {"height": -1.0, "confidence": -1.0, "distance_m_approx": 189.31, "contains_target": false, "candidate_rank": 32}, "geometry": {"type": "Polygon", "coordinates": [[[77.595594125243, 12.973579098145791], [77.59575817035524, 12.97340763603043], [77.59583135195187, 12.973474123166781], [77.59566730428506, 12.97364558790639], [77.595594125243, 12.973579098145791]]]}}, {"type": "Feature", "properties": {"height": -1.0, "confidence": -1.0, "distance_m_approx": 198.78, "contains_target": false, "candidate_rank": 33}, "geometry": {"type": "Polygon", "coordinates": [[[77.5958464418956, 12.973454874511077], [77.5958842754483, 12.973478709060288], [77.5958679246521, 12.973503357912278], [77.5959050297522, 12.97352673101254], [77.59588301675714, 12.97355991203895], [77.59580807857787, 12.973512707276782], [77.5958464418956, 12.973454874511077]]]}}, {"type": "Feature", "properties": {"height": -1.0, "confidence": -1.0, "distance_m_approx": 198.9, "contains_target": false, "candidate_rank": 34}, "geometry": {"type": "Polygon", "coordinates": [[[77.5958243698506, 12.973664272260095], [77.5960229495405, 12.973407742186865], [77.59605819216844, 12.97343365089219], [77.59608140415398, 12.973403667852452], [77.59619764042486, 12.973489119226386], [77.59607513272344, 12.97364736295205], [77.59636230468676, 12.973858477850982], [77.59639712266507, 12.973813503366813], [77.59649113729591, 12.973882618337058], [77.59635702360175, 12.974055853294246], [77.5958243698506, 12.973664272260095]]]}}, {"type": "Feature", "properties": {"height": -1.0, "confidence": -1.0, "distance_m_approx": 200.76, "contains_target": false, "candidate_rank": 35}, "geometry": {"type": "Polygon", "coordinates": [[[77.59638187468802, 12.9708310111169], [77.59643781799893, 12.971027609473055], [77.5962435439821, 12.971080106206216], [77.59621271471292, 12.970971764722904], [77.59619278953186, 12.97097715026689], [77.59616767513101, 12.970888892175495], [77.59638187468802, 12.9708310111169]]]}}, {"type": "Feature", "properties": {"height": -1.0, "confidence": -1.0, "distance_m_approx": 201.96, "contains_target": false, "candidate_rank": 36}, "geometry": {"type": "Polygon", "coordinates": [[[77.59683029712596, 12.97261786063386], [77.59698006399148, 12.972562058944618], [77.59703878344753, 12.972711714908982], [77.59688902007855, 12.972767525476087], [77.59683029712596, 12.97261786063386]]]}}, {"type": "Feature", "properties": {"height": -1.0, "confidence": -1.0, "distance_m_approx": 209.61, "contains_target": false, "candidate_rank": 37}, "geometry": {"type": "Polygon", "coordinates": [[[77.59625375290928, 12.973379449195349], [77.59628375842615, 12.973406834724742], [77.59624093500302, 12.973451390312533], [77.59621092948615, 12.973424004788043], [77.59625375290928, 12.973379449195349]]]}}, {"type": "Feature", "properties": {"height": -1.0, "confidence": -1.0, "distance_m_approx": 213.68, "contains_target": false, "candidate_rank": 38}, "geometry": {"type": "Polygon", "coordinates": [[[77.59594570660673, 12.970766742221343], [77.59593679344884, 12.970699913026948], [77.59604072667119, 12.97068674956833], [77.59605306143125, 12.970779283126902], [77.59604409028059, 12.970780419350021], [77.59605471750729, 12.970860100284739], [77.59595712431735, 12.970872460750371], [77.59594923960076, 12.970813342642913], [77.59591231244778, 12.970818019576797], [77.59590614180001, 12.970771753222905], [77.59594570660673, 12.970766742221343]]]}}, {"type": "Feature", "properties": {"height": -1.0, "confidence": -1.0, "distance_m_approx": 214.06, "contains_target": false, "candidate_rank": 39}, "geometry": {"type": "Polygon", "coordinates": [[[77.59647020314118, 12.973267375843207], [77.59659585523926, 12.973228280567355], [77.59670181194998, 12.973551732899452], [77.59657617838596, 12.9735908137893], [77.59647020314118, 12.973267375843207]]]}}, {"type": "Feature", "properties": {"height": -1.0, "confidence": -1.0, "distance_m_approx": 218.62, "contains_target": false, "candidate_rank": 40}, "geometry": {"type": "Polygon", "coordinates": [[[77.59713642256857, 12.971681178227627], [77.59713916456191, 12.971730695516115], [77.59710172266014, 12.97173266437315], [77.59710706233145, 12.971829092748024], [77.59698671336142, 12.971835421214507], [77.5969849815761, 12.971804147151886], [77.59695021409588, 12.971805975375744], [77.59694386421646, 12.971691303779906], [77.5970160735985, 12.971687506697876], [77.5970160735985, 12.971687506697876], [77.59713642256857, 12.971681178227627]]]}}, {"type": "Feature", "properties": {"height": -1.0, "confidence": -1.0, "distance_m_approx": 218.68, "contains_target": false, "candidate_rank": 41}, "geometry": {"type": "Polygon", "coordinates": [[[77.59701142644096, 12.972009347353435], [77.59705856976476, 12.972011929240011], [77.59705541804959, 12.972066645555273], [77.59718741298221, 12.97207387448691], [77.59718395681318, 12.972133801629283], [77.59700481463929, 12.97212399059947], [77.59701142644096, 12.972009347353435]]]}}, {"type": "Feature", "properties": {"height": -1.0, "confidence": -1.0, "distance_m_approx": 218.92, "contains_target": false, "candidate_rank": 42}, "geometry": {"type": "Polygon", "coordinates": [[[77.59625874248859, 12.973444898528811], [77.59654237976386, 12.973642872209183], [77.59649412936702, 12.973708516486198], [77.59621049209171, 12.973510542858065], [77.59625874248859, 12.973444898528811]]]}}, {"type": "Feature", "properties": {"height": -1.0, "confidence": -1.0, "distance_m_approx": 222.19, "contains_target": false, "candidate_rank": 43}, "geometry": {"type": "Polygon", "coordinates": [[[77.59700224874955, 12.971676351171169], [77.5969341798595, 12.971686736413716], [77.59691204567002, 12.971548970231055], [77.59698011456007, 12.971538584982738], [77.59700224874955, 12.971676351171169]]]}}, {"type": "Feature", "properties": {"height": -1.0, "confidence": -1.0, "distance_m_approx": 225.79, "contains_target": false, "candidate_rank": 44}, "geometry": {"type": "Polygon", "coordinates": [[[77.59615284403654, 12.973584996526498], [77.59619386612076, 12.973525685828207], [77.59648527717584, 12.97371708097208], [77.59644425509163, 12.973776391624739], [77.59615284403654, 12.973584996526498]]]}}, {"type": "Feature", "properties": {"height": -1.0, "confidence": -1.0, "distance_m_approx": 231.01, "contains_target": false, "candidate_rank": 45}, "geometry": {"type": "Polygon", "coordinates": [[[77.59641438085994, 12.973788817560944], [77.5963703417595, 12.973844768664662], [77.59609676761416, 12.973640291708989], [77.59614080671456, 12.97358434055927], [77.59641438085994, 12.973788817560944]]]}}, {"type": "Feature", "properties": {"height": -1.0, "confidence": -1.0, "distance_m_approx": 232.93, "contains_target": false, "candidate_rank": 46}, "geometry": {"type": "Polygon", "coordinates": [[[77.59704188479175, 12.972882491199513], [77.59698662035713, 12.972899384614976], [77.59696239191163, 12.97282411901783], [77.59708449039404, 12.972786803863798], [77.59709492829674, 12.972819229186541], [77.59702809949026, 12.972839657642567], [77.59704188479175, 12.972882491199513]]]}}, {"type": "Feature", "properties": {"height": -1.0, "confidence": -1.0, "distance_m_approx": 233.13, "contains_target": false, "candidate_rank": 47}, "geometry": {"type": "Polygon", "coordinates": [[[77.59714555594478, 12.971213800781669], [77.59718287115179, 12.971459337059812], [77.59711200576459, 12.971469564152642], [77.59711705886552, 12.971502813836963], [77.59706194134213, 12.971510768241146], [77.59705844304149, 12.971487749230121], [77.59692983548692, 12.971506309507276], [77.59691764226005, 12.971426077392081], [77.59698325769382, 12.971416603480918], [77.59695658157891, 12.97124107305521], [77.59714555594478, 12.971213800781669]]]}}]}